ONEWEB-0012             
1 44057U 19010A   26173.57296008 -.00000033  00000+0 -12105-3 0  9996
2 44057  87.9096 227.7159 0001879  85.5672 274.5673 13.16595432352274
ONEWEB-0010             
1 44058U 19010B   26173.44629908  .00000031  00000+0  48240-4 0  9998
2 44058  87.9091 227.7368 0001962 106.8402 253.2944 13.16595045352302
ONEWEB-0008             
1 44059U 19010C   26173.39562535  .00000019  00000+0  15374-4 0  9993
2 44059  87.9091 227.7423 0002331  95.5739 264.5657 13.16596328352416
ONEWEB-0007             
1 44060U 19010D   26173.51094307  .00000025  00000+0  31606-4 0  9999
2 44060  87.8999 258.1605 0001676 101.7464 258.3855 13.15549117352076
ONEWEB-0006             
1 44061U 19010E   26173.66700457  .00000022  00000+0  25298-4 0  9993
2 44061  87.9009 258.0942 0001913 104.2307 255.9036 13.15549777352145
ONEWEB-0011             
1 44062U 19010F   26173.48320631 -.00000074  00000+0 -23059-3 0  9997
2 44062  87.9012 258.1407 0002133 103.8951 256.2417 13.15548007352111
ONEWEB-0013             
1 45131U 20008A   26173.36598091 -.00001422  00000+0 -41644-2 0  9995
2 45131  87.8508  51.7804 0001613  52.7461 307.3812 13.09460163306740
ONEWEB-0017             
1 45132U 20008B   26173.34476837 -.00000488  00000+0 -14341-2 0  9992
2 45132  87.8830  35.2417 0001724  90.2574 269.8751 13.10366476308628
ONEWEB-0020             
1 45133U 20008C   26173.31438237  .00000222  00000+0  59960-3 0  9993
2 45133  87.8827  35.2461 0001825  83.6873 276.4462 13.10488829309018
ONEWEB-0021             
1 45134U 20008D   26173.32957619 -.00000518  00000+0 -15181-2 0  9991
2 45134  87.8825  35.2587 0001653  82.5101 277.6214 13.10426514309322
ONEWEB-0023             
1 45136U 20008F   26173.56962233 -.00001765  00000+0 -50944-2 0  9998
2 45136  87.8819  35.1927 0001988  80.5073 279.6279 13.10375156308788
ONEWEB-0024             
1 45137U 20008G   26173.54184427  .00000297  00000+0  81428-3 0  9997
2 45137  87.8834  35.1915 0001786  85.5196 274.6135 13.10495682308941
ONEWEB-0025             
1 45138U 20008H   26173.54158125  .00000307  00000+0  84203-3 0  9990
2 45138  87.8837  35.1815 0002297  89.5321 270.6070 13.10491863309274
ONEWEB-0026             
1 45139U 20008J   26173.57563377  .00000304  00000+0  82076-3 0  9996
2 45139  87.8883  19.9954 0001884  91.8969 268.2375 13.11413830311818
ONEWEB-0028             
1 45140U 20008K   26173.55104725  .00000319  00000+0  86516-3 0  9993
2 45140  87.8879  20.0086 0001834  67.6216 292.5106 13.11416656309329
ONEWEB-0032             
1 45141U 20008L   26173.57565528 -.00000460  00000+0 -13547-2 0  9990
2 45141  87.8830  35.1971 0001950  68.8815 291.2520 13.10360015309001
ONEWEB-0033             
1 45142U 20008M   26173.32110347 -.00000165  00000+0 -50795-3 0  9998
2 45142  87.8820  35.2548 0001762 100.9557 259.1768 13.10459285308884
ONEWEB-0035             
1 45143U 20008N   26173.57058769 -.00001706  00000+0 -49241-2 0  9990
2 45143  87.8820  35.1976 0001923  86.8649 273.2698 13.10386166308642
ONEWEB-0036             
1 45144U 20008P   26173.54736853  .00000004  00000+0 -26283-4 0  9997
2 45144  87.8838  35.2161 0001888  77.9055 282.2284 13.09978066309063
ONEWEB-0038             
1 45145U 20008Q   26173.28075085 -.00000191  00000+0 -57355-3 0  9993
2 45145  87.8897  20.0637 0000188 123.1232 236.9914 13.11414030310991
ONEWEB-0039             
1 45146U 20008R   26173.32451812  .00000018  00000+0  13934-4 0  9997
2 45146  87.8808  35.2447 0001830  67.9176 292.2145 13.10448659308832
ONEWEB-0040             
1 45147U 20008S   26173.54680514  .00000092  00000+0  22680-3 0  9994
2 45147  87.8821  35.2110 0002154  81.8842 278.2529 13.10475262308560
ONEWEB-0043             
1 45149U 20008U   26173.31941901 -.00000141  00000+0 -44048-3 0  9990
2 45149  87.8830  35.2441 0001853  66.8387 293.2935 13.10465736308856
ONEWEB-0044             
1 45150U 20008V   26173.57720739 -.00000415  00000+0 -12246-2 0  9992
2 45150  87.8841  35.1938 0001769  77.8855 282.2470 13.10353067309180
ONEWEB-0045             
1 45151U 20008W   26173.27553156  .00000006  00000+0 -18575-4 0  9995
2 45151  87.8892  20.0470 0001745  83.3584 276.7743 13.11414162311073
ONEWEB-0047             
1 45152U 20008X   26173.57031197 -.00000639  00000+0 -18669-2 0  9990
2 45152  87.8835  35.1946 0001638  88.2270 271.9045 13.10379509308907
ONEWEB-0048             
1 45153U 20008Y   26173.56540953 -.00000687  00000+0 -20050-2 0  9995
2 45153  87.8824  35.2160 0001719  85.2135 274.9189 13.10397351308516
ONEWEB-0049             
1 45154U 20008Z   26173.33955369 -.00000612  00000+0 -17885-2 0  9992
2 45154  87.8824  35.2504 0002182  79.5861 280.5512 13.10387407308701
ONEWEB-0051             
1 45155U 20008AA  26173.27383756  .00000136  00000+0  34730-3 0  9999
2 45155  87.8883  20.0545 0001861  86.4943 273.6398 13.11416156311754
ONEWEB-0052             
1 45156U 20008AB  26173.58920429  .00000164  00000+0  43274-3 0  9992
2 45156  87.8838  35.1871 0002205  77.9194 282.2180 13.10305082308643
