OBJECT_NAME,OBJECT_ID,EPOCH,MEAN_MOTION,ECCENTRICITY,INCLINATION,RA_OF_ASC_NODE,ARG_OF_PERICENTER,MEAN_ANOMALY,EPHEMERIS_TYPE,CLASSIFICATION_TYPE,NORAD_CAT_ID,ELEMENT_SET_NO,REV_AT_EPOCH,BSTAR,MEAN_MOTION_DOT,MEAN_MOTION_DDOT
ONEWEB-0012,2019-010A,2026-06-22T13:45:03.750912,13.16595432,.00018795,87.9096,227.7159,85.5672,274.5673,0,U,44057,999,35227,-.12104518E-3,-.33E-6,0
ONEWEB-0010,2019-010B,2026-06-22T10:42:40.240512,13.16595045,.00019629,87.9091,227.7368,106.8402,253.2944,0,U,44058,999,35230,.48239597E-4,.31E-6,0
ONEWEB-0008,2019-010C,2026-06-22T09:29:42.030240,13.16596328,.00023312,87.9091,227.7423,95.5739,264.5657,0,U,44059,999,35241,.15374259E-4,.19E-6,0
ONEWEB-0007,2019-010D,2026-06-22T12:15:45.481248,13.15549117,.00016769,87.8999,258.1605,101.7464,258.3855,0,U,44060,999,35207,.31606259E-4,.25E-6,0
ONEWEB-0006,2019-010E,2026-06-22T16:00:29.194848,13.15549777,.00019137,87.9009,258.0942,104.2307,255.9036,0,U,44061,999,35214,.25297704E-4,.22E-6,0
ONEWEB-0011,2019-010F,2026-06-22T11:35:49.025184,13.15548007,.00021333,87.9012,258.1407,103.8951,256.2417,0,U,44062,999,35211,-.23059448E-3,-.74E-6,0
ONEWEB-0013,2020-008A,2026-06-22T08:47:00.750624,13.09460163,.00016138,87.8508,51.7804,52.7461,307.3812,0,U,45131,999,30674,-.41644453E-2,-.1422E-4,0
ONEWEB-0017,2020-008B,2026-06-22T08:16:27.987168,13.10366476,.00017246,87.8830,35.2417,90.2574,269.8751,0,U,45132,999,30862,-.14341136E-2,-.488E-5,0
ONEWEB-0020,2020-008C,2026-06-22T07:32:42.636768,13.10488829,.00018253,87.8827,35.2461,83.6873,276.4462,0,U,45133,999,30901,.59960152E-3,.222E-5,0
ONEWEB-0021,2020-008D,2026-06-22T07:54:35.382816,13.10426514,.00016532,87.8825,35.2587,82.5101,277.6214,0,U,45134,999,30932,-.15181466E-2,-.518E-5,0
ONEWEB-0023,2020-008F,2026-06-22T13:40:15.369312,13.10375156,.00019889,87.8819,35.1927,80.5073,279.6279,0,U,45136,999,30878,-.50943804E-2,-.1765E-4,0
ONEWEB-0024,2020-008G,2026-06-22T13:00:15.344928,13.10495682,.00017869,87.8834,35.1915,85.5196,274.6135,0,U,45137,999,30894,.81427759E-3,.297E-5,0
ONEWEB-0025,2020-008H,2026-06-22T12:59:52.620000,13.10491863,.00022975,87.8837,35.1815,89.5321,270.6070,0,U,45138,999,30927,.84203345E-3,.307E-5,0
ONEWEB-0026,2020-008J,2026-06-22T13:48:54.757728,13.11413830,.00018847,87.8883,19.9954,91.8969,268.2375,0,U,45139,999,31181,.82076043E-3,.304E-5,0
ONEWEB-0028,2020-008K,2026-06-22T13:13:30.482400,13.11416656,.00018348,87.8879,20.0086,67.6216,292.5106,0,U,45140,999,30932,.86516076E-3,.319E-5,0
ONEWEB-0032,2020-008L,2026-06-22T13:48:56.616192,13.10360015,.00019501,87.8830,35.1971,68.8815,291.2520,0,U,45141,999,30900,-.13547466E-2,-.46E-5,0
ONEWEB-0033,2020-008M,2026-06-22T07:42:23.339808,13.10459285,.00017623,87.8820,35.2548,100.9557,259.1768,0,U,45142,999,30888,-.50795003E-3,-.165E-5,0
ONEWEB-0035,2020-008N,2026-06-22T13:41:38.776416,13.10386166,.00019237,87.8820,35.1976,86.8649,273.2698,0,U,45143,999,30864,-.49240713E-2,-.1706E-4,0
ONEWEB-0036,2020-008P,2026-06-22T13:08:12.640992,13.09978066,.0001888,87.8838,35.2161,77.9055,282.2284,0,U,45144,999,30906,-.26283337E-4,.4E-7,0
ONEWEB-0038,2020-008Q,2026-06-22T06:44:16.873440,13.11414030,.00001886,87.8897,20.0637,123.1232,236.9914,0,U,45145,999,31099,-.57355192E-3,-.191E-5,0
ONEWEB-0039,2020-008R,2026-06-22T07:47:18.365568,13.10448659,.00018301,87.8808,35.2447,67.9176,292.2145,0,U,45146,999,30883,.13933598E-4,.18E-6,0
ONEWEB-0040,2020-008S,2026-06-22T13:07:23.964096,13.10475262,.00021546,87.8821,35.2110,81.8842,278.2529,0,U,45147,999,30856,.22679852E-3,.92E-6,0
ONEWEB-0043,2020-008U,2026-06-22T07:39:57.802464,13.10465736,.00018534,87.8830,35.2441,66.8387,293.2935,0,U,45149,999,30885,-.44047718E-3,-.141E-5,0
ONEWEB-0044,2020-008V,2026-06-22T13:51:10.718496,13.10353067,.00017698,87.8841,35.1938,77.8855,282.2470,0,U,45150,999,30918,-.12246102E-2,-.415E-5,0
ONEWEB-0045,2020-008W,2026-06-22T06:36:45.926784,13.11414162,.00017454,87.8892,20.0470,83.3584,276.7743,0,U,45151,999,31107,-.18574942E-4,.6E-7,0
ONEWEB-0047,2020-008X,2026-06-22T13:41:14.954208,13.10379509,.00016385,87.8835,35.1946,88.2270,271.9045,0,U,45152,999,30890,-.18668853E-2,-.639E-5,0
ONEWEB-0048,2020-008Y,2026-06-22T13:34:11.383392,13.10397351,.00017193,87.8824,35.2160,85.2135,274.9189,0,U,45153,999,30851,-.20049808E-2,-.687E-5,0
ONEWEB-0049,2020-008Z,2026-06-22T08:08:57.438816,13.10387407,.00021827,87.8824,35.2504,79.5861,280.5512,0,U,45154,999,30870,-.17884897E-2,-.612E-5,0
ONEWEB-0051,2020-008AA,2026-06-22T06:34:19.565184,13.11416156,.00018618,87.8883,20.0545,86.4943,273.6398,0,U,45155,999,31175,.3472966E-3,.136E-5,0
ONEWEB-0052,2020-008AB,2026-06-22T14:08:27.250656,13.10305082,.00022054,87.8838,35.1871,77.9194,282.2180,0,U,45156,999,30864,.43273802E-3,.164E-5,0
